{
  "type": "FeatureCollection",
  "features": [
    {
      "type": "Feature",
      "properties": {
        "norad_id": 30546,
        "name": "FENGYUN 1C DEB",
        "group": "fengyun-1c-debris",
        "lat": -37.06542946873081,
        "lon": -149.1814957412768,
        "alt_km": 675.0343358771688,
        "timestamp": "2025-12-13T20:38:51.282300+00:00",
        "meta_object_name": "FENGYUN 1C DEB",
        "meta_object_id": "1999-025AKL",
        "meta_epoch": "2025-12-12T14:26:03.141600",
        "meta_mean_motion": 14.87152684,
        "meta_eccentricity": 0.00924925,
        "meta_inclination": 98.909,
        "meta_ra_of_asc_node": 202.6025,
        "meta_arg_of_pericenter": 162.9263,
        "meta_mean_anomaly": 263.4446,
        "meta_ephemeris_type": 0,
        "meta_classification_type": "U",
        "meta_norad_cat_id": 30546,
        "meta_element_set_no": 999,
        "meta_rev_at_epoch": 455,
        "meta_bstar": 0.001153633,
        "meta_mean_motion_dot": 0.00011158,
        "meta_mean_motion_ddot": 0,
        "tle_line1": "1 30546U 99025AKL 25346.60142525  .00011158  00000+0  11536-2 0  9991",
        "tle_line2": "2 30546  98.9090 202.6025 0092492 162.9263 263.4446 14.87152684  4556"
      },
      "geometry": {
        "type": "Point",
        "coordinates": [
          -149.1814957412768,
          -37.06542946873081
        ]
      }
    },
    {
      "type": "Feature",
      "properties": {
        "norad_id": 30547,
        "name": "FENGYUN 1C DEB",
        "group": "fengyun-1c-debris",
        "lat": -16.64161504295054,
        "lon": 8.212069592944168,
        "alt_km": 705.806684891766,
        "timestamp": "2025-12-13T20:38:51.282311+00:00",
        "meta_object_name": "FENGYUN 1C DEB",
        "meta_object_id": "1999-025AKM",
        "meta_epoch": "2025-12-12T20:24:51.795936",
        "meta_mean_motion": 14.37751096,
        "meta_eccentricity": 0.0095163,
        "meta_inclination": 98.9022,
        "meta_ra_of_asc_node": 189.8519,
        "meta_arg_of_pericenter": 217.1001,
        "meta_mean_anomaly": 156.7348,
        "meta_ephemeris_type": 0,
        "meta_classification_type": "U",
        "meta_norad_cat_id": 30547,
        "meta_element_set_no": 999,
        "meta_rev_at_epoch": 98724,
        "meta_bstar": 0.00043718474,
        "meta_mean_motion_dot": 1.337e-05,
        "meta_mean_motion_ddot": 0,
        "tle_line1": "1 30547U 99025AKM 25346.85059949  .00001337  00000+0  43718-3 0  9992",
        "tle_line2": "2 30547  98.9022 189.8519 0095163 217.1001 156.7348 14.37751096987245"
      },
      "geometry": {
        "type": "Point",
        "coordinates": [
          8.212069592944168,
          -16.64161504295054
        ]
      }
    },
    {
      "type": "Feature",
      "properties": {
        "norad_id": 30548,
        "name": "FENGYUN 1C DEB",
        "group": "fengyun-1c-debris",
        "lat": 48.47090341042472,
        "lon": -125.6730993081536,
        "alt_km": 786.4483768144655,
        "timestamp": "2025-12-13T20:38:51.282321+00:00",
        "meta_object_name": "FENGYUN 1C DEB",
        "meta_object_id": "1999-025AKN",
        "meta_epoch": "2025-12-10T12:13:24.269952",
        "meta_mean_motion": 14.26844945,
        "meta_eccentricity": 0.00687565,
        "meta_inclination": 99.6812,
        "meta_ra_of_asc_node": 241.7363,
        "meta_arg_of_pericenter": 341.7334,
        "meta_mean_anomaly": 143.2043,
        "meta_ephemeris_type": 0,
        "meta_classification_type": "U",
        "meta_norad_cat_id": 30548,
        "meta_element_set_no": 999,
        "meta_rev_at_epoch": 14063,
        "meta_bstar": 0.003249128,
        "meta_mean_motion_dot": 8.037e-05,
        "meta_mean_motion_ddot": 0,
        "tle_line1": "1 30548U 99025AKN 25344.50930868  .00008037  00000+0  32491-2 0  9990",
        "tle_line2": "2 30548  99.6812 241.7363 0068756 341.7334 143.2043 14.26844945140638"
      },
      "geometry": {
        "type": "Point",
        "coordinates": [
          -125.6730993081536,
          48.47090341042472
        ]
      }
    },
    {
      "type": "Feature",
      "properties": {
        "norad_id": 30549,
        "name": "FENGYUN 1C DEB",
        "group": "fengyun-1c-debris",
        "lat": 57.170748009821686,
        "lon": -58.416243919399236,
        "alt_km": 1030.019336701027,
        "timestamp": "2025-12-13T20:38:51.282331+00:00",
        "meta_object_name": "FENGYUN 1C DEB",
        "meta_object_id": "1999-025AKP",
        "meta_epoch": "2025-12-03T07:39:14.923872",
        "meta_mean_motion": 13.98584639,
        "meta_eccentricity": 0.0288262,
        "meta_inclination": 98.4796,
        "meta_ra_of_asc_node": 98.4482,
        "meta_arg_of_pericenter": 283.4344,
        "meta_mean_anomaly": 73.4847,
        "meta_ephemeris_type": 0,
        "meta_classification_type": "U",
        "meta_norad_cat_id": 30549,
        "meta_element_set_no": 999,
        "meta_rev_at_epoch": 95162,
        "meta_bstar": 0.0024216,
        "meta_mean_motion_dot": 4.917e-05,
        "meta_mean_motion_ddot": 0,
        "tle_line1": "1 30549U 99025AKP 25337.31892273  .00004917  00000+0  24216-2 0  9998",
        "tle_line2": "2 30549  98.4796  98.4482 0288262 283.4344  73.4847 13.98584639951629"
      },
      "geometry": {
        "type": "Point",
        "coordinates": [
          -58.416243919399236,
          57.170748009821686
        ]
      }
    },
    {
      "type": "Feature",
      "properties": {
        "norad_id": 30550,
        "name": "FENGYUN 1C DEB",
        "group": "fengyun-1c-debris",
        "lat": -59.54383731962025,
        "lon": -101.11887955590701,
        "alt_km": 796.4349267627558,
        "timestamp": "2025-12-13T20:38:51.282342+00:00",
        "meta_object_name": "FENGYUN 1C DEB",
        "meta_object_id": "1999-025AKQ",
        "meta_epoch": "2025-12-12T15:58:06.352320",
        "meta_mean_motion": 14.02396955,
        "meta_eccentricity": 0.01327932,
        "meta_inclination": 99.053,
        "meta_ra_of_asc_node": 241.9619,
        "meta_arg_of_pericenter": 297.5218,
        "meta_mean_anomaly": 91.9516,
        "meta_ephemeris_type": 0,
        "meta_classification_type": "U",
        "meta_norad_cat_id": 30550,
        "meta_element_set_no": 999,
        "meta_rev_at_epoch": 95394,
        "meta_bstar": 0.0042392832,
        "meta_mean_motion_dot": 6.995e-05,
        "meta_mean_motion_ddot": 0,
        "tle_line1": "1 30550U 99025AKQ 25346.66535130  .00006995  00000+0  42393-2 0  9998",
        "tle_line2": "2 30550  99.0530 241.9619 0132793 297.5218  91.9516 14.02396955953947"
      },
      "geometry": {
        "type": "Point",
        "coordinates": [
          -101.11887955590701,
          -59.54383731962025
        ]
      }
    },
    {
      "type": "Feature",
      "properties": {
        "norad_id": 30552,
        "name": "FENGYUN 1C DEB",
        "group": "fengyun-1c-debris",
        "lat": 20.491541276900072,
        "lon": -57.077545223270185,
        "alt_km": 709.7764796995161,
        "timestamp": "2025-12-13T20:38:51.282352+00:00",
        "meta_object_name": "FENGYUN 1C DEB",
        "meta_object_id": "1999-025AKS",
        "meta_epoch": "2025-12-13T01:45:34.488576",
        "meta_mean_motion": 14.54785743,
        "meta_eccentricity": 0.00147897,
        "meta_inclination": 98.8339,
        "meta_ra_of_asc_node": 118.7596,
        "meta_arg_of_pericenter": 250.8382,
        "meta_mean_anomaly": 109.1212,
        "meta_ephemeris_type": 0,
        "meta_classification_type": "U",
        "meta_norad_cat_id": 30552,
        "meta_element_set_no": 999,
        "meta_rev_at_epoch": 97657,
        "meta_bstar": 0.0046460153,
        "meta_mean_motion_dot": 0.00019951,
        "meta_mean_motion_ddot": 0,
        "tle_line1": "1 30552U 99025AKS 25347.07331584  .00019951  00000+0  46460-2 0  9998",
        "tle_line2": "2 30552  98.8339 118.7596 0014789 250.8382 109.1212 14.54785743976579"
      },
      "geometry": {
        "type": "Point",
        "coordinates": [
          -57.077545223270185,
          20.491541276900072
        ]
      }
    },
    {
      "type": "Feature",
      "properties": {
        "norad_id": 30553,
        "name": "FENGYUN 1C DEB",
        "group": "fengyun-1c-debris",
        "lat": -71.1719566698854,
        "lon": 111.02682359045207,
        "alt_km": 671.6303062153347,
        "timestamp": "2025-12-13T20:38:51.282362+00:00",
        "meta_object_name": "FENGYUN 1C DEB",
        "meta_object_id": "1999-025AKT",
        "meta_epoch": "2025-12-13T04:40:18.692256",
        "meta_mean_motion": 14.72311491,
        "meta_eccentricity": 0.00205609,
        "meta_inclination": 99.1292,
        "meta_ra_of_asc_node": 82.1417,
        "meta_arg_of_pericenter": 150.1062,
        "meta_mean_anomaly": 210.132,
        "meta_ephemeris_type": 0,
        "meta_classification_type": "U",
        "meta_norad_cat_id": 30553,
        "meta_element_set_no": 999,
        "meta_rev_at_epoch": 98480,
        "meta_bstar": 0.0051371771,
        "meta_mean_motion_dot": 0.00032675,
        "meta_mean_motion_ddot": 0,
        "tle_line1": "1 30553U 99025AKT 25347.19466079  .00032675  00000+0  51372-2 0  9996",
        "tle_line2": "2 30553  99.1292  82.1417 0020560 150.1062 210.1320 14.72311491984802"
      },
      "geometry": {
        "type": "Point",
        "coordinates": [
          111.02682359045207,
          -71.1719566698854
        ]
      }
    }
  ]
}